[
    {
        "Altitude(m)": 622200.1355127229,
        "Argument of Periapsis(deg)": 0.0,
        "Eccentricity": 0.0,
        "Inclination(deg)": 60.0,
        "Latitude(deg)": -52.162616367994865,
        "Longitude(deg)": -137.63935080372275,
        "Mean Anomaly(deg)": 294.5455,
        "RAAN(deg)": 10.0,
        "Satellite Name": "Test1 62",
        "Satellite Number": 62,
        "Semi-Major Axis(m)": 6980739.136638005,
        "Time(s)": 0
    },
    {
        "Altitude(m)": 622058.3037414075,
        "Argument of Periapsis(deg)": 0.00010418945913296404,
        "Eccentricity": 0.0,
        "Inclination(deg)": 60.0,
        "Latitude(deg)": -51.79936710104387,
        "Longitude(deg)": -136.87129024455336,
        "Mean Anomaly(deg)": 295.1656061454619,
        "RAAN(deg)": 9.999579950860259,
        "Satellite Name": "Test1 62",
        "Satellite Number": 62,
        "Semi-Major Axis(m)": 6980739.136638005,
        "Time(s)": 10
    }
]